[{"OBJECT_NAME":"STARLINK-31519","OBJECT_ID":"2024-074N","EPOCH":"2026-01-07T14:05:03.001920","MEAN_MOTION":15.27564246,"ECCENTRICITY":0.0001505,"INCLINATION":43.0054,"RA_OF_ASC_NODE":328.2382,"ARG_OF_PERICENTER":276.6328,"MEAN_ANOMALY":83.4353,"EPHEMERIS_TYPE":0,"CLASSIFICATION_TYPE":"U","NORAD_CAT_ID":59546,"ELEMENT_SET_NO":999,"REV_AT_EPOCH":9667,"BSTAR":2.3312e-5,"MEAN_MOTION_DOT":3.79e-6,"MEAN_MOTION_DDOT":0},{"OBJECT_NAME":"STARLINK-31736","OBJECT_ID":"2024-074P","EPOCH":"2026-01-07T05:16:39.651168","MEAN_MOTION":15.27573227,"ECCENTRICITY":0.000105,"INCLINATION":43.0008,"RA_OF_ASC_NODE":323.7207,"ARG_OF_PERICENTER":286.7119,"MEAN_ANOMALY":73.3617,"EPHEMERIS_TYPE":0,"CLASSIFICATION_TYPE":"U","NORAD_CAT_ID":59547,"ELEMENT_SET_NO":999,"REV_AT_EPOCH":9669,"BSTAR":-0.00011184,"MEAN_MOTION_DOT":-3.338e-5,"MEAN_MOTION_DDOT":0},{"OBJECT_NAME":"STARLINK-31675","OBJECT_ID":"2024-074Q","EPOCH":"2026-01-07T14:27:14.876064","MEAN_MOTION":15.27572141,"ECCENTRICITY":0.0001449,"INCLINATION":43.0054,"RA_OF_ASC_NODE":328.3537,"ARG_OF_PERICENTER":275.7889,"MEAN_ANOMALY":84.2798,"EPHEMERIS_TYPE":0,"CLASSIFICATION_TYPE":"U","NORAD_CAT_ID":59548,"ELEMENT_SET_NO":999,"REV_AT_EPOCH":9667,"BSTAR":-5.0962e-5,"MEAN_MOTION_DOT":-1.664e-5,"MEAN_MOTION_DDOT":0},{"OBJECT_NAME":"STARLINK-31722","OBJECT_ID":"2024-074R","EPOCH":"2026-01-07T13:59:29.477184","MEAN_MOTION":15.27566375,"ECCENTRICITY":8.91e-5,"INCLINATION":43.0008,"RA_OF_ASC_NODE":328.2107,"ARG_OF_PERICENTER":279.6494,"MEAN_ANOMALY":80.4257,"EPHEMERIS_TYPE":0,"CLASSIFICATION_TYPE":"U","NORAD_CAT_ID":59549,"ELEMENT_SET_NO":999,"REV_AT_EPOCH":9667,"BSTAR":-8.4364e-5,"MEAN_MOTION_DOT":-2.582e-5,"MEAN_MOTION_DDOT":0},{"OBJECT_NAME":"STARLINK-31741","OBJECT_ID":"2024-074S","EPOCH":"2026-01-07T14:10:35.982336","MEAN_MOTION":15.27568163,"ECCENTRICITY":0.0001461,"INCLINATION":43.0045,"RA_OF_ASC_NODE":328.2672,"ARG_OF_PERICENTER":277.8757,"MEAN_ANOMALY":82.1929,"EPHEMERIS_TYPE":0,"CLASSIFICATION_TYPE":"U","NORAD_CAT_ID":59550,"ELEMENT_SET_NO":999,"REV_AT_EPOCH":9667,"BSTAR":-4.4265e-5,"MEAN_MOTION_DOT":-1.48e-5,"MEAN_MOTION_DDOT":0},{"OBJECT_NAME":"STARLINK-31699","OBJECT_ID":"2024-074T","EPOCH":"2026-01-07T14:30:57.574656","MEAN_MOTION":15.27567547,"ECCENTRICITY":0.0001402,"INCLINATION":43.004,"RA_OF_ASC_NODE":328.374,"ARG_OF_PERICENTER":279.3229,"MEAN_ANOMALY":80.7464,"EPHEMERIS_TYPE":0,"CLASSIFICATION_TYPE":"U","NORAD_CAT_ID":59551,"ELEMENT_SET_NO":999,"REV_AT_EPOCH":9667,"BSTAR":-2.0421e-5,"MEAN_MOTION_DOT":-8.24e-6,"MEAN_MOTION_DDOT":0},{"OBJECT_NAME":"STARLINK-31750","OBJECT_ID":"2024-074U","EPOCH":"2026-01-07T06:56:50.111232","MEAN_MOTION":15.27561067,"ECCENTRICITY":0.0001064,"INCLINATION":43.0045,"RA_OF_ASC_NODE":330.3048,"ARG_OF_PERICENTER":299.3568,"MEAN_ANOMALY":60.7178,"EPHEMERIS_TYPE":0,"CLASSIFICATION_TYPE":"U","NORAD_CAT_ID":59552,"ELEMENT_SET_NO":999,"REV_AT_EPOCH":9662,"BSTAR":-1.7538e-5,"MEAN_MOTION_DOT":-7.44e-6,"MEAN_MOTION_DDOT":0},{"OBJECT_NAME":"STARLINK-31723","OBJECT_ID":"2024-074V","EPOCH":"2026-01-07T14:42:03.137184","MEAN_MOTION":15.27554851,"ECCENTRICITY":0.0002595,"INCLINATION":43.0042,"RA_OF_ASC_NODE":328.4322,"ARG_OF_PERICENTER":259.6208,"MEAN_ANOMALY":100.4351,"EPHEMERIS_TYPE":0,"CLASSIFICATION_TYPE":"U","NORAD_CAT_ID":59553,"ELEMENT_SET_NO":999,"REV_AT_EPOCH":9667,"BSTAR":4.307e-5,"MEAN_MOTION_DOT":9.22e-6,"MEAN_MOTION_DDOT":0},{"OBJECT_NAME":"STARLINK-31724","OBJECT_ID":"2024-074W","EPOCH":"2026-01-07T11:36:39.896640","MEAN_MOTION":15.27573068,"ECCENTRICITY":0.0001403,"INCLINATION":43.004,"RA_OF_ASC_NODE":293.1459,"ARG_OF_PERICENTER":283.8073,"MEAN_ANOMALY":76.2622,"EPHEMERIS_TYPE":0,"CLASSIFICATION_TYPE":"U","NORAD_CAT_ID":59554,"ELEMENT_SET_NO":999,"REV_AT_EPOCH":9706,"BSTAR":-3.6655e-6,"MEAN_MOTION_DOT":-3.63e-6,"MEAN_MOTION_DDOT":0},{"OBJECT_NAME":"STARLINK-31730","OBJECT_ID":"2024-074X","EPOCH":"2026-01-07T05:59:41.354016","MEAN_MOTION":15.27553995,"ECCENTRICITY":4.56e-5,"INCLINATION":43.0015,"RA_OF_ASC_NODE":330.8706,"ARG_OF_PERICENTER":283.0598,"MEAN_ANOMALY":77.0203,"EPHEMERIS_TYPE":0,"CLASSIFICATION_TYPE":"U","NORAD_CAT_ID":59555,"ELEMENT_SET_NO":999,"REV_AT_EPOCH":9661,"BSTAR":-4.1919e-5,"MEAN_MOTION_DOT":-1.414e-5,"MEAN_MOTION_DDOT":0},{"OBJECT_NAME":"STARLINK-31718","OBJECT_ID":"2024-074Y","EPOCH":"2026-01-07T07:17:11.003712","MEAN_MOTION":15.27562587,"ECCENTRICITY":0.0001155,"INCLINATION":43.0019,"RA_OF_ASC_NODE":330.4137,"ARG_OF_PERICENTER":285.3603,"MEAN_ANOMALY":74.7121,"EPHEMERIS_TYPE":0,"CLASSIFICATION_TYPE":"U","NORAD_CAT_ID":59556,"ELEMENT_SET_NO":999,"REV_AT_EPOCH":9662,"BSTAR":8.3335e-6,"MEAN_MOTION_DOT":-3.3e-7,"MEAN_MOTION_DDOT":0},{"OBJECT_NAME":"STARLINK-31747","OBJECT_ID":"2024-076A","EPOCH":"2026-01-07T14:37:40.698912","MEAN_MOTION":15.27569131,"ECCENTRICITY":0.0001325,"INCLINATION":42.9998,"RA_OF_ASC_NODE":343.3672,"ARG_OF_PERICENTER":289.582,"MEAN_ANOMALY":70.4888,"EPHEMERIS_TYPE":0,"CLASSIFICATION_TYPE":"U","NORAD_CAT_ID":59564,"ELEMENT_SET_NO":999,"REV_AT_EPOCH":9727,"BSTAR":-6.121e-5,"MEAN_MOTION_DOT":-1.945e-5,"MEAN_MOTION_DDOT":0},{"OBJECT_NAME":"STARLINK-31388","OBJECT_ID":"2024-076B","EPOCH":"2026-01-07T15:23:42.946656","MEAN_MOTION":15.27560724,"ECCENTRICITY":5.17e-5,"INCLINATION":42.9998,"RA_OF_ASC_NODE":354.0058,"ARG_OF_PERICENTER":287.8843,"MEAN_ANOMALY":72.1952,"EPHEMERIS_TYPE":0,"CLASSIFICATION_TYPE":"U","NORAD_CAT_ID":59565,"ELEMENT_SET_NO":999,"REV_AT_EPOCH":9716,"BSTAR":-4.7255e-5,"MEAN_MOTION_DOT":-1.561e-5,"MEAN_MOTION_DDOT":0},{"OBJECT_NAME":"STARLINK-31332","OBJECT_ID":"2024-076C","EPOCH":"2026-01-07T16:09:44.796096","MEAN_MOTION":15.27574485,"ECCENTRICITY":0.0001165,"INCLINATION":43.0048,"RA_OF_ASC_NODE":353.3642,"ARG_OF_PERICENTER":284.1437,"MEAN_ANOMALY":75.9286,"EPHEMERIS_TYPE":0,"CLASSIFICATION_TYPE":"U","NORAD_CAT_ID":59566,"ELEMENT_SET_NO":999,"REV_AT_EPOCH":9717,"BSTAR":-3.7417e-5,"MEAN_MOTION_DOT":-1.291e-5,"MEAN_MOTION_DDOT":0},{"OBJECT_NAME":"STARLINK-31689","OBJECT_ID":"2024-076D","EPOCH":"2026-01-07T15:15:08.693856","MEAN_MOTION":15.27569387,"ECCENTRICITY":0.0001337,"INCLINATION":43.0009,"RA_OF_ASC_NODE":350.4859,"ARG_OF_PERICENTER":283.6577,"MEAN_ANOMALY":76.4125,"EPHEMERIS_TYPE":0,"CLASSIFICATION_TYPE":"U","NORAD_CAT_ID":59567,"ELEMENT_SET_NO":999,"REV_AT_EPOCH":9720,"BSTAR":-8.0492e-5,"MEAN_MOTION_DOT":-2.476e-5,"MEAN_MOTION_DDOT":0},{"OBJECT_NAME":"STARLINK-31471","OBJECT_ID":"2024-076E","EPOCH":"2026-01-07T16:18:59.051232","MEAN_MOTION":15.27574244,"ECCENTRICITY":0.00012,"INCLINATION":43.0026,"RA_OF_ASC_NODE":353.4106,"ARG_OF_PERICENTER":265.9635,"MEAN_ANOMALY":94.108,"EPHEMERIS_TYPE":0,"CLASSIFICATION_TYPE":"U","NORAD_CAT_ID":59568,"ELEMENT_SET_NO":999,"REV_AT_EPOCH":9708,"BSTAR":-6.9985e-5,"MEAN_MOTION_DOT":-2.187e-5,"MEAN_MOTION_DDOT":0},{"OBJECT_NAME":"STARLINK-31470","OBJECT_ID":"2024-076F","EPOCH":"2026-01-07T08:49:15.228768","MEAN_MOTION":15.27576378,"ECCENTRICITY":0.0001456,"INCLINATION":43.0008,"RA_OF_ASC_NODE":351.9137,"ARG_OF_PERICENTER":276.1184,"MEAN_ANOMALY":83.9502,"EPHEMERIS_TYPE":0,"CLASSIFICATION_TYPE":"U","NORAD_CAT_ID":59569,"ELEMENT_SET_NO":999,"REV_AT_EPOCH":9707,"BSTAR":-7.2477e-5,"MEAN_MOTION_DOT":-2.256e-5,"MEAN_MOTION_DDOT":0}]
