STARLINK-31519          
1 59546U 24074N   26007.58684030  .00000379  00000+0  23312-4 0  9998
2 59546  43.0054 328.2382 0001505 276.6328  83.4353 15.27564246 96676
STARLINK-31736          
1 59547U 24074P   26007.21990337 -.00003338  00000+0 -11184-3 0  9992
2 59547  43.0008 323.7207 0001050 286.7119  73.3617 15.27573227 96699
STARLINK-31675          
1 59548U 24074Q   26007.60225551 -.00001664  00000+0 -50962-4 0  9993
2 59548  43.0054 328.3537 0001449 275.7889  84.2798 15.27572141 96675
STARLINK-31722          
1 59549U 24074R   26007.58298006 -.00002582  00000+0 -84364-4 0  9999
2 59549  43.0008 328.2107 0000891 279.6494  80.4257 15.27566375 96672
STARLINK-31741          
1 59550U 24074S   26007.59069424 -.00001480  00000+0 -44265-4 0  9994
2 59550  43.0045 328.2672 0001461 277.8757  82.1929 15.27568163 96670
STARLINK-31699          
1 59551U 24074T   26007.60483304 -.00000824  00000+0 -20421-4 0  9993
2 59551  43.0040 328.3740 0001402 279.3229  80.7464 15.27567547 96672
STARLINK-31750          
1 59552U 24074U   26007.28946888 -.00000744  00000+0 -17538-4 0  9995
2 59552  43.0045 330.3048 0001064 299.3568  60.7178 15.27561067 96620
STARLINK-31723          
1 59553U 24074V   26007.61253631  .00000922  00000+0  43070-4 0  9996
2 59553  43.0042 328.4322 0002595 259.6208 100.4351 15.27554851 96674
STARLINK-31724          
1 59554U 24074W   26007.48379510 -.00000363  00000+0 -36655-5 0  9990
2 59554  43.0040 293.1459 0001403 283.8073  76.2622 15.27573068 97064
STARLINK-31730          
1 59555U 24074X   26007.24978419 -.00001414  00000+0 -41919-4 0  9994
2 59555  43.0015 330.8706 0000456 283.0598  77.0203 15.27553995 96613
STARLINK-31718          
1 59556U 24074Y   26007.30359958 -.00000033  00000+0  83335-5 0  9997
2 59556  43.0019 330.4137 0001155 285.3603  74.7121 15.27562587 96622
STARLINK-31747          
1 59564U 24076A   26007.60949883 -.00001945  00000+0 -61210-4 0  9994
2 59564  42.9998 343.3672 0001325 289.5820  70.4888 15.27569131 97275
STARLINK-31388          
1 59565U 24076B   26007.64146929 -.00001561  00000+0 -47255-4 0  9996
2 59565  42.9998 354.0058 0000517 287.8843  72.1952 15.27560724 97169
STARLINK-31332          
1 59566U 24076C   26007.67343514 -.00001291  00000+0 -37417-4 0  9998
2 59566  43.0048 353.3642 0001165 284.1437  75.9286 15.27574485 97179
STARLINK-31689          
1 59567U 24076D   26007.63551729 -.00002476  00000+0 -80492-4 0  9991
2 59567  43.0009 350.4859 0001337 283.6577  76.4125 15.27569387 97202
STARLINK-31471          
1 59568U 24076E   26007.67985013 -.00002187  00000+0 -69985-4 0  9996
2 59568  43.0026 353.4106 0001200 265.9635  94.1080 15.27574244 97088
STARLINK-31470          
1 59569U 24076F   26007.36753737 -.00002256  00000+0 -72477-4 0  9996
2 59569  43.0008 351.9137 0001456 276.1184  83.9502 15.27576378 97076
